FLOCK 4BE-35            
1 60558U 24149CU  26065.20720801  .00093796  00000+0  21151-2 0  9998
2 60558  97.3795 148.4055 0004665 269.8089  90.2624 15.42882570 86465
FLOCK 4BE-5             
1 60559U 24149CV  26065.21127858  .00022732  00000+0  63229-3 0  9998
2 60559  97.3885 148.4576 0002515 310.1882  49.9142 15.36845185 86445
FLOCK 4BE-12            
1 60560U 24149CW  26065.49475073  .00109368  00000+0  22245-2 0  9998
2 60560  97.3765 149.4114 0005864 273.1659  86.8919 15.45870740 86574
FLOCK 4BE-3             
1 60561U 24149CX  26065.21661391  .00020277  00000+0  54312-3 0  9991
2 60561  97.3747 148.3867 0003131 296.5072  63.5851 15.38039693 86495
FLOCK 4BE-19            
1 60563U 24149CZ  26065.61801718  .00026181  00000+0  65293-3 0  9996
2 60563  97.3782 149.8829 0003117 298.7098  61.3835 15.40180721 86610
PELICAN-2               
1 62631U 25009Y   26065.21797668  .00066640  00000+0  16407-2 0  9990
2 62631  97.4019 155.4824 0007638 217.3090 142.7627 15.40330182 63707
PELICAN-3               
1 65315U 25188A   26065.10297198  .00052087  00000+0  12742-2 0  9999
2 65315  97.2226 142.6913 0003927 185.4103 174.7102 15.40614124 29448
PELICAN-4               
1 65316U 25188B   26065.18352221  .00008432  00000+0  20928-3 0  9998
2 65316  97.2374 142.8658 0003366  97.3176 262.8454 15.40590175 29458
